FENGYUN 3D              
1 43010U 17072A   26161.52272675 -.00000106  00000+0 -28400-4 0  9993
2 43010  99.0123 135.8246 0002656  72.6817 287.4649 14.19737817444047
NOAA 20 (JPSS-1)        
1 43013U 17073A   26161.44609852  .00000042  00000+0  40710-4 0  9994
2 43013  98.7772 100.9686 0000395  50.5620 309.5591 14.19510511443515
GOES 17                 
1 43226U 18022A   26161.32223433 -.00000165  00000+0  00000+0 0  9999
2 43226   0.9188  85.8364 0000530  18.3220 181.0438  1.00271216 30359
SENTINEL-3B             
1 43437U 18039A   26161.45723022  .00000080  00000+0  50996-4 0  9993
2 43437  98.6248 229.0859 0000829  79.8812 280.2462 14.26739827423168
FENGYUN 2H              
1 43491U 18050A   26161.49828117 -.00000114  00000+0  00000+0 0  9996
2 43491   3.0128  79.1544 0001685 128.6364 309.8929  1.00270758 29378
METOP-C                 
1 43689U 18087A   26161.45162735  .00000069  00000+0  51394-4 0  9993
2 43689  98.6646 221.1781 0001519 137.0651 223.0645 14.21510252393877
GEO-KOMPSAT-2A          
1 43823U 18100A   26160.79502436 -.00000326  00000+0  00000+0 0  9991
2 43823   0.0520 130.4715 0002233 314.0489 228.1123  1.00269926 27552
METEOR-M2 2             
1 44387U 19038A   26161.50103708  .00000388  00000+0  18773-3 0  9994
2 44387  98.9145 148.6878 0002246  57.9018 302.2378 14.24365475360342
ARKTIKA-M 1             
1 47719U 21016A   26160.51571443 -.00000149  00000+0  00000+0 0  9996
2 47719  63.2417  58.7595 7285674 269.8905  14.6803  2.00625436 38630
FENGYUN 3E              
1 49008U 21062A   26161.50733671  .00000086  00000+0  61231-4 0  9990
2 49008  98.7496 164.9899 0002775  96.1882 263.9610 14.19903586255631
GOES 18                 
1 51850U 22021A   26161.02767789  .00000114  00000+0  00000+0 0  9992
2 51850   0.0448 130.4208 0000472  17.5522 343.3826  1.00271105  6529
NOAA 21 (JPSS-2)        
1 54234U 22150A   26161.47924580  .00000040  00000+0  39849-4 0  9993
2 54234  98.7060 100.3810 0001281 169.8096 190.3106 14.19564336185594
METEOSAT-12 (MTG-I1)    
1 54743U 22170C   26161.33982777  .00000009  00000+0  00000+0 0  9994
2 54743   0.7304  21.7551 0003304  71.8076 287.0515  1.00271665 12907
TIANMU-1 03             
1 55973U 23039A   26161.51796259  .00013458  00000+0  26739-3 0  9996
2 55973  97.5233 335.2278 0004193 115.8225 244.3457 15.47095417179808
TIANMU-1 04             
1 55974U 23039B   26161.51000229  .00014781  00000+0  28748-3 0  9994
2 55974  97.5170 334.3726 0004768 112.7487 247.4267 15.47688155179812
TIANMU-1 05             
1 55975U 23039C   26161.49840959  .00014061  00000+0  28000-3 0  9996
2 55975  97.5212 334.8249 0003844 130.2693 229.8893 15.47021794179788
TIANMU-1 06             
1 55976U 23039D   26161.51297189  .00014667  00000+0  28624-3 0  9995
2 55976  97.5223 335.4689 0004122 127.2003 232.9624 15.47594669179814
FENGYUN 3G              
1 56232U 23055A   26160.12520916  .00022526  00000+0  34170-3 0  9998
2 56232  49.9935  27.5514 0005565 167.7824 192.3280 15.54457419178757
METEOR-M2 3             
1 57166U 23091A   26161.56407635 -.00000015  00000+0  12330-4 0  9991
2 57166  98.6091 216.6776 0003983 172.7447 187.3791 14.24046205153575
TIANMU-1 07             
1 57399U 23101A   26161.49356218  .00005776  00000+0  20310-3 0  9997
2 57399  97.2600 212.3157 0003739 135.2074 224.9469 15.29729490160623
TIANMU-1 08             
1 57400U 23101B   26161.52563567  .00005521  00000+0  19420-3 0  9999
2 57400  97.2588 212.1187 0005269 131.3974 228.7721 15.29734898160629
TIANMU-1 09             
1 57401U 23101C   26161.50917991  .00005659  00000+0  19884-3 0  9998
2 57401  97.2546 211.5218 0004139 142.1098 218.0435 15.29763305160623
TIANMU-1 10             
1 57402U 23101D   26161.47669420  .00005815  00000+0  20437-3 0  9996
2 57402  97.2625 212.5337 0005732 144.0079 216.1549 15.29733910160618
FENGYUN 3F              
1 57490U 23111A   26161.28001336  .00000025  00000+0  32337-4 0  9990
2 57490  98.6841 231.4172 0001589  98.2307 261.9050 14.19937904147883
ARKTIKA-M 2             
1 58584U 23198A   26154.30372208  .00000150  00000+0  00000+0 0  9990
2 58584  63.2209 155.9142 6898549 267.4684  18.7857  2.00591941 18047
TIANMU-1 11             
1 58645U 23205A   26161.50034170  .00004892  00000+0  18758-3 0  9990
2 58645  97.3452 183.1622 0009737  38.9302 321.2637 15.26926092136505
TIANMU-1 12             
1 58646U 23205B   26161.47054524  .00005377  00000+0  20620-3 0  9992
2 58646  97.3440 182.8900 0007565  26.6315 333.5311 15.26888353136482
TIANMU-1 13             
1 58647U 23205C   26161.56762590  .00004858  00000+0  18745-3 0  9990
2 58647  97.3468 183.2571 0006711   6.5321 353.6004 15.26743256136493
TIANMU-1 14             
1 58648U 23205D   26161.55302561  .00005154  00000+0  19839-3 0  9993
2 58648  97.3404 182.4297 0007696  10.1748 349.9645 15.26788156136494
TIANMU-1 19             
1 58660U 23208A   26161.55732002  .00007289  00000+0  24233-3 0  9992
2 58660  97.4492 277.8242 0004353 356.6083   3.5128 15.31473723136319
TIANMU-1 20             
1 58661U 23208B   26161.46969086  .00007633  00000+0  24434-3 0  9993
2 58661  97.4434 278.3645 0006607   0.1778 359.9465 15.32663995136398
